{"type": "FeatureCollection", "features": [ {"type": "Feature", "properties": {"norad_id": 30357, "name": "FENGYUN 1C DEB", "group": "fengyun-1c-debris", "lat": 37.05740597550275, "lon": -3.9744737980582086, "alt_km": 843.5038377168166, "timestamp": "2025-12-01T03:58:50.090044+00:00", "meta": {"OBJECT_NAME": "FENGYUN 1C DEB", "OBJECT_ID": "1999-025ABU", "EPOCH": "2025-11-30T14:43:54.880896", "MEAN_MOTION": 14.05252683, "ECCENTRICITY": 0.0049388, "INCLINATION": 98.8076, "RA_OF_ASC_NODE": 2.2128, "ARG_OF_PERICENTER": 4.2939, "MEAN_ANOMALY": 121.9341, "EPHEMERIS_TYPE": 0, "CLASSIFICATION_TYPE": "U", "NORAD_CAT_ID": 30357, "ELEMENT_SET_NO": 999, "REV_AT_EPOCH": 96636, "BSTAR": 0.00026506, "MEAN_MOTION_DOT": 3.9e-06, "MEAN_MOTION_DDOT": 0, "GROUP": "fengyun-1c-debris"}, "tle": {"line1": "1 30357U 99025ABU 25334.61382964  .00000390  00000+0  26506-3 0  9992", "line2": "2 30357  98.8076   2.2128 0049388   4.2939 121.9341 14.05252683966369"}}, "geometry": {"type": "Point", "coordinates": [-3.9744737980582086, 37.05740597550275]}}, {"type": "Feature", "properties": {"norad_id": 30358, "name": "FENGYUN 1C DEB", "group": "fengyun-1c-debris", "lat": 29.753621550665812, "lon": -10.414897897595232, "alt_km": 814.6520187063816, "timestamp": "2025-12-01T03:58:50.090055+00:00", "meta": {"OBJECT_NAME": "FENGYUN 1C DEB", "OBJECT_ID": "1999-025ABV", "EPOCH": "2025-11-30T12:19:10.848000", "MEAN_MOTION": 14.20515489, "ECCENTRICITY": 0.0083128, "INCLINATION": 98.5551, "RA_OF_ASC_NODE": 164.0174, "ARG_OF_PERICENTER": 235.0465, "MEAN_ANOMALY": 180.5797, "EPHEMERIS_TYPE": 0, "CLASSIFICATION_TYPE": "U", "NORAD_CAT_ID": 30358, "ELEMENT_SET_NO": 999, "REV_AT_EPOCH": 96744, "BSTAR": 0.0018851621, "MEAN_MOTION_DOT": 4.151e-05, "MEAN_MOTION_DDOT": 0, "GROUP": "fengyun-1c-debris"}, "tle": {"line1": "1 30358U 99025ABV 25334.51332000  .00004151  00000+0  18852-2 0  9991", "line2": "2 30358  98.5551 164.0174 0083128 235.0465 180.5797 14.20515489967440"}}, "geometry": {"type": "Point", "coordinates": [-10.414897897595232, 29.753621550665812]}}, {"type": "Feature", "properties": {"norad_id": 30359, "name": "FENGYUN 1C DEB", "group": "fengyun-1c-debris", "lat": -16.998562058203554, "lon": -25.700280501889708, "alt_km": 1024.5481361163256, "timestamp": "2025-12-01T03:58:50.090066+00:00", "meta": {"OBJECT_NAME": "FENGYUN 1C DEB", "OBJECT_ID": "1999-025ABW", "EPOCH": "2025-11-30T18:25:29.012160", "MEAN_MOTION": 13.93881892, "ECCENTRICITY": 0.01445, "INCLINATION": 101.6283, "RA_OF_ASC_NODE": 157.4091, "ARG_OF_PERICENTER": 12.177, "MEAN_ANOMALY": 348.2815, "EPHEMERIS_TYPE": 0, "CLASSIFICATION_TYPE": "U", "NORAD_CAT_ID": 30359, "ELEMENT_SET_NO": 999, "REV_AT_EPOCH": 94902, "BSTAR": 0.0022529, "MEAN_MOTION_DOT": 3.178e-05, "MEAN_MOTION_DDOT": 0, "GROUP": "fengyun-1c-debris"}, "tle": {"line1": "1 30359U 99025ABW 25334.76769690  .00003178  00000+0  22529-2 0  9992", "line2": "2 30359 101.6283 157.4091 0144500  12.1770 348.2815 13.93881892949029"}}, "geometry": {"type": "Point", "coordinates": [-25.700280501889708, -16.998562058203554]}}, {"type": "Feature", "properties": {"norad_id": 30360, "name": "FENGYUN 1C DEB", "group": "fengyun-1c-debris", "lat": -58.665702324002424, "lon": 59.43807669964321, "alt_km": 822.8988480331254, "timestamp": "2025-12-01T03:58:50.090076+00:00", "meta": {"OBJECT_NAME": "FENGYUN 1C DEB", "OBJECT_ID": "1999-025ABX", "EPOCH": "2025-11-30T17:12:48.627936", "MEAN_MOTION": 14.26354686, "ECCENTRICITY": 0.0031579, "INCLINATION": 98.7675, "RA_OF_ASC_NODE": 44.3055, "ARG_OF_PERICENTER": 179.8069, "MEAN_ANOMALY": 337.8022, "EPHEMERIS_TYPE": 0, "CLASSIFICATION_TYPE": "U", "NORAD_CAT_ID": 30360, "ELEMENT_SET_NO": 999, "REV_AT_EPOCH": 97253, "BSTAR": 0.0017149, "MEAN_MOTION_DOT": 4.099e-05, "MEAN_MOTION_DDOT": 0, "GROUP": "fengyun-1c-debris"}, "tle": {"line1": "1 30360U 99025ABX 25334.71722949  .00004099  00000+0  17149-2 0  9990", "line2": "2 30360  98.7675  44.3055 0031579 179.8069 337.8022 14.26354686972538"}}, "geometry": {"type": "Point", "coordinates": [59.43807669964321, -58.665702324002424]}}, {"type": "Feature", "properties": {"norad_id": 30361, "name": "FENGYUN 1C DEB", "group": "fengyun-1c-debris", "lat": 81.08784708770021, "lon": -62.75146924349725, "alt_km": 756.5084838821813, "timestamp": "2025-12-01T03:58:50.090099+00:00", "meta": {"OBJECT_NAME": "FENGYUN 1C DEB", "OBJECT_ID": "1999-025ABY", "EPOCH": "2025-11-30T14:05:49.769376", "MEAN_MOTION": 14.25276283, "ECCENTRICITY": 0.0065897, "INCLINATION": 98.5715, "RA_OF_ASC_NODE": 10.7965, "ARG_OF_PERICENTER": 66.1132, "MEAN_ANOMALY": 294.6934, "EPHEMERIS_TYPE": 0, "CLASSIFICATION_TYPE": "U", "NORAD_CAT_ID": 30361, "ELEMENT_SET_NO": 999, "REV_AT_EPOCH": 97443, "BSTAR": 0.00093745, "MEAN_MOTION_DOT": 2.214e-05, "MEAN_MOTION_DDOT": 0, "GROUP": "fengyun-1c-debris"}, "tle": {"line1": "1 30361U 99025ABY 25334.58738159  .00002214  00000+0  93745-3 0  9990", "line2": "2 30361  98.5715  10.7965 0065897  66.1132 294.6934 14.25276283974436"}}, "geometry": {"type": "Point", "coordinates": [-62.75146924349725, 81.08784708770021]}}, {"type": "Feature", "properties": {"norad_id": 30362, "name": "FENGYUN 1C DEB", "group": "fengyun-1c-debris", "lat": -62.5746151573453, "lon": -84.24727679293738, "alt_km": 847.4088074095371, "timestamp": "2025-12-01T03:58:50.090111+00:00", "meta": {"OBJECT_NAME": "FENGYUN 1C DEB", "OBJECT_ID": "1999-025ABZ", "EPOCH": "2025-11-30T18:04:23.177856", "MEAN_MOTION": 14.1163935, "ECCENTRICITY": 0.0096442, "INCLINATION": 99.0491, "RA_OF_ASC_NODE": 257.4513, "ARG_OF_PERICENTER": 16.6112, "MEAN_ANOMALY": 343.8181, "EPHEMERIS_TYPE": 0, "CLASSIFICATION_TYPE": "U", "NORAD_CAT_ID": 30362, "ELEMENT_SET_NO": 999, "REV_AT_EPOCH": 95999, "BSTAR": 0.0025941, "MEAN_MOTION_DOT": 4.885e-05, "MEAN_MOTION_DDOT": 0, "GROUP": "fengyun-1c-debris"}, "tle": {"line1": "1 30362U 99025ABZ 25334.75304604  .00004885  00000+0  25941-2 0  9992", "line2": "2 30362  99.0491 257.4513 0096442  16.6112 343.8181 14.11639350959999"}}, "geometry": {"type": "Point", "coordinates": [-84.24727679293738, -62.5746151573453]}}, {"type": "Feature", "properties": {"norad_id": 30363, "name": "FENGYUN 1C DEB", "group": "fengyun-1c-debris", "lat": -21.639026883580943, "lon": 49.74516873669568, "alt_km": 845.6054959921657, "timestamp": "2025-12-01T03:58:50.090122+00:00", "meta": {"OBJECT_NAME": "FENGYUN 1C DEB", "OBJECT_ID": "1999-025ACA", "EPOCH": "2025-11-27T03:28:18.224832", "MEAN_MOTION": 14.16745834, "ECCENTRICITY": 0.00807464, "INCLINATION": 99.031, "RA_OF_ASC_NODE": 42.0472, "ARG_OF_PERICENTER": 84.0701, "MEAN_ANOMALY": 276.9669, "EPHEMERIS_TYPE": 0, "CLASSIFICATION_TYPE": "U", "NORAD_CAT_ID": 30363, "ELEMENT_SET_NO": 999, "REV_AT_EPOCH": 96603, "BSTAR": 0.0017343169, "MEAN_MOTION_DOT": 3.537e-05, "MEAN_MOTION_DDOT": 0, "GROUP": "fengyun-1c-debris"}, "tle": {"line1": "1 30363U 99025ACA 25331.14465538  .00003537  00000+0  17343-2 0  9997", "line2": "2 30363  99.0310  42.0472 0080746  84.0701 276.9669 14.16745834966035"}}, "geometry": {"type": "Point", "coordinates": [49.74516873669568, -21.639026883580943]}}, {"type": "Feature", "properties": {"norad_id": 30364, "name": "FENGYUN 1C DEB", "group": "fengyun-1c-debris", "lat": 75.01843556784003, "lon": 104.77421865854565, "alt_km": 898.9277687206404, "timestamp": "2025-12-01T03:58:50.090132+00:00", "meta": {"OBJECT_NAME": "FENGYUN 1C DEB", "OBJECT_ID": "1999-025ACB", "EPOCH": "2025-11-30T17:29:01.300128", "MEAN_MOTION": 14.16649391, "ECCENTRICITY": 0.0334684, "INCLINATION": 98.1347, "RA_OF_ASC_NODE": 252.0645, "ARG_OF_PERICENTER": 355.3431, "MEAN_ANOMALY": 34.2958, "EPHEMERIS_TYPE": 0, "CLASSIFICATION_TYPE": "U", "NORAD_CAT_ID": 30364, "ELEMENT_SET_NO": 999, "REV_AT_EPOCH": 95471, "BSTAR": 0.0037914, "MEAN_MOTION_DOT": 0.000131, "MEAN_MOTION_DDOT": 0, "GROUP": "fengyun-1c-debris"}, "tle": {"line1": "1 30364U 99025ACB 25334.72848727  .00013100  00000+0  37914-2 0  9993", "line2": "2 30364  98.1347 252.0645 0334684 355.3431  34.2958 14.16649391954717"}}, "geometry": {"type": "Point", "coordinates": [104.77421865854565, 75.01843556784003]}}, {"type": "Feature", "properties": {"norad_id": 30365, "name": "FENGYUN 1C DEB", "group": "fengyun-1c-debris", "lat": -15.953289432931394, "lon": 147.37294136437242, "alt_km": 756.1062194417336, "timestamp": "2025-12-01T03:58:50.090143+00:00", "meta": {"OBJECT_NAME": "FENGYUN 1C DEB", "OBJECT_ID": "1999-025ACC", "EPOCH": "2025-11-30T10:52:09.327072", "MEAN_MOTION": 14.19211665, "ECCENTRICITY": 0.01676111, "INCLINATION": 98.6186, "RA_OF_ASC_NODE": 329.164, "ARG_OF_PERICENTER": 146.7186, "MEAN_ANOMALY": 7.185, "EPHEMERIS_TYPE": 0, "CLASSIFICATION_TYPE": "U", "NORAD_CAT_ID": 30365, "ELEMENT_SET_NO": 999, "REV_AT_EPOCH": 97438, "BSTAR": 0.00019168769, "MEAN_MOTION_DOT": 4.2e-06, "MEAN_MOTION_DDOT": 0, "GROUP": "fengyun-1c-debris"}, "tle": {"line1": "1 30365U 99025ACC 25334.45288573  .00000420  00000+0  19169-3 0  9995", "line2": "2 30365  98.6186 329.1640 0167611 146.7186   7.1850 14.19211665974385"}}, "geometry": {"type": "Point", "coordinates": [147.37294136437242, -15.953289432931394]}}]}